{
  "type": "FeatureCollection",
  "features": [
    {
      "type": "Feature",
      "properties": {
        "norad_id": 37781,
        "name": "HAIYANG-2A",
        "group": "resource",
        "lat": 13.398033532479689,
        "lon": -17.03325840955072,
        "alt_km": 968.5911840163371,
        "timestamp": "2025-12-10T05:46:13.454113+00:00",
        "meta_object_name": "HAIYANG-2A",
        "meta_object_id": "2011-043A",
        "meta_epoch": "2025-12-09T20:59:49.566336",
        "meta_mean_motion": 13.78834107,
        "meta_eccentricity": 0.0001666,
        "meta_inclination": 99.3376,
        "meta_ra_of_asc_node": 344.8529,
        "meta_arg_of_pericenter": 86.7126,
        "meta_mean_anomaly": 273.4216,
        "meta_ephemeris_type": 0,
        "meta_classification_type": "U",
        "meta_norad_cat_id": 37781,
        "meta_element_set_no": 999,
        "meta_rev_at_epoch": 72059,
        "meta_bstar": -8.8629e-05,
        "meta_mean_motion_dot": -1.34e-06,
        "meta_mean_motion_ddot": 0,
        "tle_line1": "1 37781U 11043A   25343.87487924 -.00000134  00000+0 -88629-4 0  9997",
        "tle_line2": "2 37781  99.3376 344.8529 0001666  86.7126 273.4216 13.78834107720599"
      },
      "geometry": {
        "type": "Point",
        "coordinates": [
          -17.03325840955072,
          13.398033532479689
        ]
      }
    },
    {
      "type": "Feature",
      "properties": {
        "norad_id": 37791,
        "name": "RASAT",
        "group": "resource",
        "lat": 49.43873076517951,
        "lon": 63.99949693103412,
        "alt_km": 648.9417337017367,
        "timestamp": "2025-12-10T05:46:13.454124+00:00",
        "meta_object_name": "RASAT",
        "meta_object_id": "2011-044D",
        "meta_epoch": "2025-12-09T20:11:57.992352",
        "meta_mean_motion": 14.67903055,
        "meta_eccentricity": 0.0021955,
        "meta_inclination": 98.0652,
        "meta_ra_of_asc_node": 73.1424,
        "meta_arg_of_pericenter": 73.5369,
        "meta_mean_anomaly": 30.6184,
        "meta_ephemeris_type": 0,
        "meta_classification_type": "U",
        "meta_norad_cat_id": 37791,
        "meta_element_set_no": 999,
        "meta_rev_at_epoch": 76540,
        "meta_bstar": 0.00017806,
        "meta_mean_motion_dot": 9.73e-06,
        "meta_mean_motion_ddot": 0,
        "tle_line1": "1 37791U 11044D   25343.84164343  .00000973  00000+0  17806-3 0  9990",
        "tle_line2": "2 37791  98.0652  73.1424 0021955  73.5369  30.6184 14.67903055765409"
      },
      "geometry": {
        "type": "Point",
        "coordinates": [
          63.99949693103412,
          49.43873076517951
        ]
      }
    },
    {
      "type": "Feature",
      "properties": {
        "norad_id": 37841,
        "name": "SRMSAT",
        "group": "resource",
        "lat": -15.83771417593468,
        "lon": 71.71311652504474,
        "alt_km": 845.8043033723934,
        "timestamp": "2025-12-10T05:46:13.454135+00:00",
        "meta_object_name": "SRMSAT",
        "meta_object_id": "2011-058D",
        "meta_epoch": "2025-12-09T18:16:26.313024",
        "meta_mean_motion": 14.11510038,
        "meta_eccentricity": 0.0011712,
        "meta_inclination": 19.9704,
        "meta_ra_of_asc_node": 125.9768,
        "meta_arg_of_pericenter": 280.4028,
        "meta_mean_anomaly": 107.1239,
        "meta_ephemeris_type": 0,
        "meta_classification_type": "U",
        "meta_norad_cat_id": 37841,
        "meta_element_set_no": 999,
        "meta_rev_at_epoch": 73102,
        "meta_bstar": 0.00014938,
        "meta_mean_motion_dot": 5.4e-06,
        "meta_mean_motion_ddot": 0,
        "tle_line1": "1 37841U 11058D   25343.76141566  .00000540  00000+0  14938-3 0  9997",
        "tle_line2": "2 37841  19.9704 125.9768 0011712 280.4028 107.1239 14.11510038731029"
      },
      "geometry": {
        "type": "Point",
        "coordinates": [
          71.71311652504474,
          -15.83771417593468
        ]
      }
    },
    {
      "type": "Feature",
      "properties": {
        "norad_id": 38012,
        "name": "PLEIADES 1A",
        "group": "resource",
        "lat": -69.07625486971111,
        "lon": 79.15329363284825,
        "alt_km": 705.8583979607029,
        "timestamp": "2025-12-10T05:46:13.454145+00:00",
        "meta_object_name": "PLEIADES 1A",
        "meta_object_id": "2011-076F",
        "meta_epoch": "2025-12-09T20:50:25.395936",
        "meta_mean_motion": 14.58556527,
        "meta_eccentricity": 0.0001352,
        "meta_inclination": 98.1823,
        "meta_ra_of_asc_node": 56.681,
        "meta_arg_of_pericenter": 72.8091,
        "meta_mean_anomaly": 63.9835,
        "meta_ephemeris_type": 0,
        "meta_classification_type": "U",
        "meta_norad_cat_id": 38012,
        "meta_element_set_no": 999,
        "meta_rev_at_epoch": 74439,
        "meta_bstar": 0.0001162,
        "meta_mean_motion_dot": 4.95e-06,
        "meta_mean_motion_ddot": 0,
        "tle_line1": "1 38012U 11076F   25343.86834949  .00000495  00000+0  11620-3 0  9997",
        "tle_line2": "2 38012  98.1823  56.6810 0001352  72.8091  63.9835 14.58556527744390"
      },
      "geometry": {
        "type": "Point",
        "coordinates": [
          79.15329363284825,
          -69.07625486971111
        ]
      }
    },
    {
      "type": "Feature",
      "properties": {
        "norad_id": 38038,
        "name": "ZIYUAN 1-02C (ZY 1-02C)",
        "group": "resource",
        "lat": 21.33789280691061,
        "lon": 46.97737615281591,
        "alt_km": 767.6587836153085,
        "timestamp": "2025-12-10T05:46:13.454156+00:00",
        "meta_object_name": "ZIYUAN 1-02C (ZY 1-02C)",
        "meta_object_id": "2011-079A",
        "meta_epoch": "2025-12-09T21:34:31.636992",
        "meta_mean_motion": 14.38006295,
        "meta_eccentricity": 0.0007025,
        "meta_inclination": 98.4333,
        "meta_ra_of_asc_node": 49.9647,
        "meta_arg_of_pericenter": 145.9464,
        "meta_mean_anomaly": 269.1727,
        "meta_ephemeris_type": 0,
        "meta_classification_type": "U",
        "meta_norad_cat_id": 38038,
        "meta_element_set_no": 999,
        "meta_rev_at_epoch": 73200,
        "meta_bstar": 0.00019112,
        "meta_mean_motion_dot": 5.35e-06,
        "meta_mean_motion_ddot": 0,
        "tle_line1": "1 38038U 11079A   25343.89897728  .00000535  00000+0  19112-3 0  9994",
        "tle_line2": "2 38038  98.4333  49.9647 0007025 145.9464 269.1727 14.38006295732004"
      },
      "geometry": {
        "type": "Point",
        "coordinates": [
          46.97737615281591,
          21.33789280691061
        ]
      }
    },
    {
      "type": "Feature",
      "properties": {
        "norad_id": 38046,
        "name": "ZIYUAN 3-1 (ZY 3-1)",
        "group": "resource",
        "lat": 82.08234387350744,
        "lon": -14.336116749180489,
        "alt_km": 356.8397531671053,
        "timestamp": "2025-12-10T05:46:13.454166+00:00",
        "meta_object_name": "ZIYUAN 3-1 (ZY 3-1)",
        "meta_object_id": "2012-001A",
        "meta_epoch": "2025-12-09T20:12:45.467424",
        "meta_mean_motion": 15.6798163,
        "meta_eccentricity": 0.0001929,
        "meta_inclination": 97.1751,
        "meta_ra_of_asc_node": 50.1925,
        "meta_arg_of_pericenter": 6.558,
        "meta_mean_anomaly": 353.5706,
        "meta_ephemeris_type": 0,
        "meta_classification_type": "U",
        "meta_norad_cat_id": 38046,
        "meta_element_set_no": 999,
        "meta_rev_at_epoch": 77451,
        "meta_bstar": 0.00085144,
        "meta_mean_motion_dot": 0.00094857,
        "meta_mean_motion_ddot": 0,
        "tle_line1": "1 38046U 12001A   25343.84219291  .00094857  00000+0  85144-3 0  9995",
        "tle_line2": "2 38046  97.1751  50.1925 0001929   6.5580 353.5706 15.67981630774519"
      },
      "geometry": {
        "type": "Point",
        "coordinates": [
          -14.336116749180489,
          82.08234387350744
        ]
      }
    },
    {
      "type": "Feature",
      "properties": {
        "norad_id": 38338,
        "name": "ARIRANG-3 (KOMPSAT-3)",
        "group": "resource",
        "lat": 21.193905241202437,
        "lon": 122.0685723591756,
        "alt_km": 691.4236771960332,
        "timestamp": "2025-12-10T05:46:13.454176+00:00",
        "meta_object_name": "ARIRANG-3 (KOMPSAT-3)",
        "meta_object_id": "2012-025B",
        "meta_epoch": "2025-12-09T20:50:00.051360",
        "meta_mean_motion": 14.61707154,
        "meta_eccentricity": 0.0005564,
        "meta_inclination": 98.3318,
        "meta_ra_of_asc_node": 298.4359,
        "meta_arg_of_pericenter": 348.3088,
        "meta_mean_anomaly": 11.7983,
        "meta_ephemeris_type": 0,
        "meta_classification_type": "U",
        "meta_norad_cat_id": 38338,
        "meta_element_set_no": 999,
        "meta_rev_at_epoch": 72368,
        "meta_bstar": 0.00022571,
        "meta_mean_motion_dot": 1.076e-05,
        "meta_mean_motion_ddot": 0,
        "tle_line1": "1 38338U 12025B   25343.86805615  .00001076  00000+0  22571-3 0  9994",
        "tle_line2": "2 38338  98.3318 298.4359 0005564 348.3088  11.7983 14.61707154723684"
      },
      "geometry": {
        "type": "Point",
        "coordinates": [
          122.0685723591756,
          21.193905241202437
        ]
      }
    }
  ]
}